[
    {
        "Altitude(m)": 610399.502740962,
        "Argument of Periapsis(deg)": 0.0,
        "Eccentricity": 0.0,
        "Inclination(deg)": 60.0,
        "Latitude(deg)": 52.11126294818712,
        "Longitude(deg)": -102.41566423200622,
        "Mean Anomaly(deg)": -294.5455,
        "RAAN(deg)": 310.0,
        "Satellite Name": "Test1 1368",
        "Satellite Number": 1368,
        "Semi-Major Axis(m)": 6980739.136638005,
        "Time(s)": 0
    },
    {
        "Altitude(m)": 610481.6537985482,
        "Argument of Periapsis(deg)": 0.00010418945913296404,
        "Eccentricity": 0.0,
        "Inclination(deg)": 60.0,
        "Latitude(deg)": 52.47086489445265,
        "Longitude(deg)": -101.63352889749858,
        "Mean Anomaly(deg)": -293.9253938545382,
        "RAAN(deg)": 309.99957995086027,
        "Satellite Name": "Test1 1368",
        "Satellite Number": 1368,
        "Semi-Major Axis(m)": 6980739.136638005,
        "Time(s)": 10
    }
]